NOAA 1 [-]              
1 04793U 70106A   22287.42174679 -.00000036  00000+0  44375-4 0  9994
2 04793 101.5436 348.1769 0031936  91.0792 280.1648 12.54008134372507
NOAA 2 (ITOS-D) [-]     
1 06235U 72082A   22287.88099998 -.00000039  00000+0  45940-4 0  9994
2 06235 101.9674 270.9121 0003763 204.0676 166.6538 12.53152522286933
NOAA 3 [-]              
1 06920U 73086A   22288.42233451 -.00000038  00000+0  55671-4 0  9996
2 06920 102.2219 270.3672 0006783  68.5221  85.7458 12.40349190215852
NOAA 4 [-]              
1 07529U 74089A   22287.73600498 -.00000032  00000+0  89931-4 0  9998
2 07529 101.9284 267.7786 0008624 236.0106 297.4933 12.53161148191483
NOAA 5 [-]              
1 09057U 76077A   22287.92305424 -.00000022  00000+0  17959-3 0  9996
2 09057 102.1149 254.6980 0009582 281.1638  86.3505 12.37775132 88526
TIROS N [-]             
1 11060U 78096A   22287.84423703  .00000179  00000+0  10713-3 0  9991
2 11060  98.6220 338.3474 0011152 154.6997 205.4727 14.18424208488775
NOAA 6 [-]              
1 11416U 79057A   22287.87522235  .00000311  00000+0  12780-3 0  9991
2 11416  98.6641 298.9203 0009203 266.0767  93.9365 14.33814511258843
NOAA 7 [-]              
1 12553U 81059A   22287.88751488  .00000057  00000+0  50708-4 0  9994
2 12553  98.9860 333.7128 0012269 133.1214 227.0988 14.17348435134712
NOAA 8 [-]              
1 13923U 83022A   22287.89330252  .00000182  00000+0  89942-4 0  9992
2 13923  98.6975 278.0286 0014343 217.2556 142.7632 14.28842441 59467
NOAA 9 [-]              
1 15427U 84123A   22287.91907359  .00000173  00000+0  11072-3 0  9995
2 15427  99.0606 262.2588 0014643 183.1099 231.3378 14.16232824953527
NOAA 10 [-]             
1 16969U 86073A   22288.53998542  .00000179  00000+0  89384-4 0  9994
2 16969  98.5807 272.5497 0011619 325.6381 144.1792 14.28232123878236
NOAA 11 [-]             
1 19531U 88089A   22287.88855155  .00000069  00000+0  56320-4 0  9992
2 19531  98.4371 270.4735 0010867 188.7833 171.3153 14.15327612757711
NOAA 12 [-]             
1 21263U 91032A   22288.40594785  .00000114  00000+0  65610-4 0  9990
2 21263  98.5213 284.9018 0013487 353.4385   6.6616 14.26018642634080
NOAA 13 [-]             
1 22739U 93050A   22287.91729043  .00000157  00000+0  10657-3 0  9990
2 22739  98.5194 261.8364 0009734   8.4878 351.6458 14.12870481503926
NOAA 14 [-]             
1 23455U 94089A   22288.54861585  .00000036  00000+0  40192-4 0  9991
2 23455  98.4418 308.7259 0009124 346.2900  13.8025 14.14213606433927
NOAA 15 [B]             
1 25338U 98030A   22288.53063810  .00000167  00000+0  87814-4 0  9994
2 25338  98.6353 316.4482 0009483 311.4813  48.5553 14.26182899270380
NOAA 16 [-]             
1 26536U 00055A   22287.82701172  .00000092  00000+0  71611-4 0  9991
2 26536  98.6227 342.5344 0010556 179.0716 181.0478 14.13350205434218
NOAA 17 [-]             
1 27453U 02032A   22288.55957428  .00000216  00000+0  11084-3 0  9990
2 27453  98.6828 232.4720 0010760 284.7966  75.2021 14.25152827 55970
NOAA 18 [B]             
1 28654U 05018A   22288.46288258  .00000229  00000+0  14723-3 0  9996
2 28654  98.9383 358.7438 0014014 356.4559   3.6511 14.12790656897014
NOAA 19 [+]             
1 33591U 09005A   22288.47782022  .00000182  00000+0  12346-3 0  9998
2 33591  99.1368 325.0765 0013503 207.4871 152.5587 14.12622794705393
SUOMI NPP [+]           
1 37849U 11061A   22288.51759253  .00000129  00000+0  81912-4 0  9995
2 37849  98.7405 225.4386 0001017  80.0714 339.8775 14.19551731568227
NOAA 20 [+]             
1 43013U 17073A   22288.54038637  .00000093  00000+0  64961-4 0  9998
2 43013  98.7244 225.2493 0001636  80.8346 279.3015 14.19550770254264
